[{"OBJECT_NAME":"STARLINK-1193","OBJECT_ID":"2020-006BJ","EPOCH":"2026-03-10T00:00:02.999808","MEAN_MOTION":15.55787622,"ECCENTRICITY":0.00018468,"INCLINATION":53.052,"RA_OF_ASC_NODE":228.9273,"ARG_OF_PERICENTER":4.2814,"MEAN_ANOMALY":156.1265,"EPHEMERIS_TYPE":0,"CLASSIFICATION_TYPE":"U","NORAD_CAT_ID":45100,"ELEMENT_SET_NO":999,"REV_AT_EPOCH":587,"BSTAR":0.0019633041,"MEAN_MOTION_DOT":0.00139916,"MEAN_MOTION_DDOT":0},{"OBJECT_NAME":"DONGPO 02","OBJECT_ID":"2022-098J","EPOCH":"2026-03-09T23:27:05.924160","MEAN_MOTION":15.59463601,"ECCENTRICITY":0.00021558,"INCLINATION":97.5385,"RA_OF_ASC_NODE":192.9325,"ARG_OF_PERICENTER":312.765,"MEAN_ANOMALY":47.3424,"EPHEMERIS_TYPE":0,"CLASSIFICATION_TYPE":"U","NORAD_CAT_ID":53452,"ELEMENT_SET_NO":999,"REV_AT_EPOCH":19926,"BSTAR":0.00088877097,"MEAN_MOTION_DOT":0.00070735,"MEAN_MOTION_DDOT":0}]
